NORAD_CAT_ID,OBJECT_NAME,OBJECT_TYPE,EPOCH,MEAN_MOTION,ECCENTRICITY,INCLINATION,RA_OF_ASC_NODE,ARG_OF_PERICENTER,MEAN_ANOMALY,BSTAR,MEAN_MOTION_DOT,MEAN_MOTION_DDOT,TLE_LINE0,TLE_LINE1,TLE_LINE2,SEMIMAJOR_AXIS,PERIOD,APOGEE,PERIGEE,DECAYED
55636.0,STARLINK-5218,PAYLOAD,2023-12-24 15:43:21,14.98337544,0.0002913,70.0002,76.6926,268.0553,92.0272,0.00018297,2.091e-05,0.0,0 STARLINK-5218,1 55636U 23021J   23358.65511112  .00002091  00000-0  18297-3 0  9998,2 55636  70.0002  76.6926 0002913 268.0553  92.0272 14.98337544 47265,6950.17,96.107,574.059,570.01,0.0
55636.0,STARLINK-5218,PAYLOAD,2023-12-25 10:56:58,14.98327218,0.0002562,70.0011,74.6735,247.4615,112.6273,0.00014663,1.657e-05,0.0,0 STARLINK-5218,1 55636U 23021J   23359.45623694  .00001657  00000-0  14663-3 0  9996,2 55636  70.0011  74.6735 0002562 247.4615 112.6273 14.98327218 47381,6950.201,96.107,573.847,570.286,0.0
55636.0,STARLINK-5218,PAYLOAD,2023-12-25 14:09:14,14.98330139,0.0002529,70.0009,74.3363,253.8931,106.195,0.00013386,1.505e-05,0.0,0 STARLINK-5218,1 55636U 23021J   23359.58975509  .00001505  00000-0  13386-3 0  9998,2 55636  70.0009  74.3363 0002529 253.8931 106.1950 14.98330139 47709,6950.192,96.107,573.815,570.3,0.0
55636.0,STARLINK-5218,PAYLOAD,2023-12-26 10:58:59,14.98328177,0.0002666,70.0007,72.1483,257.8171,102.2689,-3.3338e-07,-9.7e-07,0.0,0 STARLINK-5218,1 55636U 23021J   23360.45763865 -.00000097  00000-0 -33338-6 0  9995,2 55636  70.0007  72.1483 0002666 257.8171 102.2689 14.98328177 47534,6950.199,96.107,573.916,570.211,0.0
55636.0,STARLINK-5218,PAYLOAD,2023-12-26 14:11:16,14.98329172,0.0002713,70.0006,71.8116,261.4175,98.6676,-5.6012e-06,-1.6e-06,0.0,0 STARLINK-5218,1 55636U 23021J   23360.59115809 -.00000160  00000-0 -56012-5 0  9993,2 55636  70.0006  71.8116 0002713 261.4175  98.6676 14.98329172 47855,6950.195,96.107,573.946,570.175,0.0
55636.0,STARLINK-5218,PAYLOAD,2023-12-27 11:01:00,14.98330986,0.0002706,70.0006,69.6237,256.6636,103.4222,4.6712e-05,4.64e-06,0.0,0 STARLINK-5218,1 55636U 23021J   23361.45903565  .00000464  00000-0  46712-4 0  9993,2 55636  70.0006  69.6237 0002706 256.6636 103.4222 14.98330986 47682,6950.19,96.107,573.936,570.174,0.0
55636.0,STARLINK-5218,PAYLOAD,2023-12-27 14:13:16,14.98332317,0.0002704,70.0005,69.2869,257.3629,102.7227,5.9043e-05,6.12e-06,0.0,0 STARLINK-5218,1 55636U 23021J   23361.59255451  .00000612  00000-0  59043-4 0  9998,2 55636  70.0005  69.2869 0002704 257.3629 102.7227 14.98332317 48000,6950.186,96.107,573.93,570.171,0.0
55636.0,STARLINK-5218,PAYLOAD,2023-12-28 11:03:02,14.9832452,0.000289,69.9997,67.0966,264.5983,95.4846,3.64e-05,3.41e-06,0.0,0 STARLINK-5218,1 55636U 23021J   23362.46044122  .00000341  00000-0  36400-4 0  9997,2 55636  69.9997  67.0966 0002890 264.5983  95.4846 14.98324520 47832,6950.21,96.107,574.083,570.066,0.0
55636.0,STARLINK-5218,PAYLOAD,2023-12-28 14:15:17,14.98330146,0.000297,69.9996,66.76,265.7066,94.3754,0.00010076,1.109e-05,0.0,0 STARLINK-5218,1 55636U 23021J   23362.59395620  .00001109  00000-0  10076-3 0  9996,2 55636  69.9996  66.7600 0002970 265.7066  94.3754 14.98330146 48159,6950.192,96.107,574.122,569.993,0.0
55636.0,STARLINK-5218,PAYLOAD,2023-12-29 14:17:18,14.9832714,0.0002841,69.9998,64.2349,265.5983,94.4852,0.00021097,2.425e-05,0.0,0 STARLINK-5218,1 55636U 23021J   23363.59535501  .00002425  00000-0  21097-3 0  9998,2 55636  69.9998  64.2349 0002841 265.5983  94.4852 14.98327140 48304,6950.202,96.107,574.041,570.092,0.0
55636.0,STARLINK-5218,PAYLOAD,2023-12-30 14:19:19,14.98334559,0.0002944,70.0001,61.7113,267.0448,93.0374,8.9019e-05,9.69e-06,0.0,0 STARLINK-5218,1 55636U 23021J   23364.59675159  .00000969  00000-0  89019-4 0  9993,2 55636  70.0001  61.7113 0002944 267.0448  93.0374 14.98334559 48452,6950.179,96.107,574.09,569.998,0.0
55636.0,STARLINK-5218,PAYLOAD,2023-12-31 14:21:19,14.98366009,0.0002851,70.0006,59.1865,265.9207,94.1626,-0.00062752,-7.579e-05,0.0,0 STARLINK-5218,1 55636U 23021J   23365.59814545 -.00007579  00000-0 -62752-3 0  9998,2 55636  70.0006  59.1865 0002851 265.9207  94.1626 14.98366009 48300,6950.082,96.105,573.928,569.965,0.0
55636.0,STARLINK-5218,PAYLOAD,2024-01-01 11:11:04,14.98369264,0.0002912,70.0005,56.999,260.2777,99.8053,-0.00063578,-7.678e-05,0.0,0 STARLINK-5218,1 55636U 23021J   24001.46602367 -.00007678  00000-0 -63578-3 0  9996,2 55636  70.0005  56.9990 0002912 260.2777  99.8053 14.98369264 48437,6950.071,96.104,573.96,569.913,0.0
55636.0,STARLINK-5218,PAYLOAD,2024-01-01 12:47:13,14.98331261,0.0002709,70.0004,56.8302,264.7774,95.3076,1.8352e-05,1.26e-06,0.0,0 STARLINK-5218,1 55636U 23021J   24001.53279351  .00000126  00000-0  18352-4 0  9997,2 55636  70.0004  56.8302 0002709 264.7774  95.3076 14.98331261 48748,6950.189,96.107,573.937,570.171,0.0
55636.0,STARLINK-5218,PAYLOAD,2024-01-02 11:13:06,14.98323399,0.0002825,69.9999,54.4725,268.7459,91.3376,8.1387e-06,4e-08,0.0,0 STARLINK-5218,1 55636U 23021J   24002.46743895  .00000004  00000-0  81387-5 0  9993,2 55636  69.9999  54.4725 0002825 268.7459  91.3376 14.98323399 48588,6950.213,96.107,574.042,570.115,0.0
55636.0,STARLINK-5218,PAYLOAD,2024-01-02 12:49:14,14.98323987,0.0002892,69.9998,54.3043,270.0477,90.035,-2.16e-05,-3.51e-06,0.0,0 STARLINK-5218,1 55636U 23021J   24002.53419948 -.00000351  00000-0 -21600-4 0  9998,2 55636  69.9998  54.3043 0002892 270.0477  90.0350 14.98323987 48894,6950.211,96.107,574.086,570.066,0.0
55636.0,STARLINK-5218,PAYLOAD,2024-01-03 11:15:07,14.98331737,0.0002982,69.9996,51.9476,271.0797,89.002,2.6186e-05,2.19e-06,0.0,0 STARLINK-5218,1 55636U 23021J   24003.46883450  .00000219  00000-0  26186-4 0  9999,2 55636  69.9996  51.9476 0002982 271.0797  89.0020 14.98331737 48738,6950.188,96.107,574.125,569.98,0.0
55636.0,STARLINK-5218,PAYLOAD,2024-01-03 12:51:15,14.98332382,0.0002993,69.9996,51.7793,271.4872,88.5944,3.1727e-05,2.86e-06,0.0,0 STARLINK-5218,1 55636U 23021J   24003.53559389  .00000286  00000-0  31727-4 0  9999,2 55636  69.9996  51.7793 0002993 271.4872  88.5944 14.98332382 49049,6950.186,96.107,574.131,569.97,0.0
55636.0,STARLINK-5218,PAYLOAD,2024-01-04 11:17:07,14.98333302,0.0002941,69.9998,49.4229,270.4177,89.6645,0.00011442,1.273e-05,0.0,0 STARLINK-5218,1 55636U 23021J   24004.47023012  .00001273  00000-0  11442-3 0  9990,2 55636  69.9998  49.4229 0002941 270.4177  89.6645 14.98333302 48883,6950.183,96.107,574.092,570.004,0.0
55636.0,STARLINK-5218,PAYLOAD,2024-01-04 12:53:15,14.98333878,0.0002947,69.9998,49.2547,270.5984,89.4838,0.00011805,1.316e-05,0.0,0 STARLINK-5218,1 55636U 23021J   24004.53698952  .00001316  00000-0  11805-3 0  9999,2 55636  69.9998  49.2547 0002947 270.5984  89.4838 14.98333878 49192,6950.181,96.107,574.094,569.998,0.0
55636.0,STARLINK-5218,PAYLOAD,2024-01-05 04:54:37,14.98329656,0.0002822,69.9999,47.5719,267.3467,92.7369,4.5738e-06,-3.8e-07,0.0,0 STARLINK-5218,1 55636U 23021J   24005.20459501 -.00000038  00000-0  45738-5 0  9994,2 55636  69.9999  47.5719 0002822 267.3467  92.7369 14.98329656 48999,6950.194,96.107,574.02,570.098,0.0
55636.0,STARLINK-5218,PAYLOAD,2024-01-05 12:55:17,14.98329685,0.0002697,70.0002,46.7307,264.2871,95.7981,2.708e-07,-9e-07,0.0,0 STARLINK-5218,1 55636U 23021J   24005.53839516 -.00000090  00000-0  27080-6 0  9997,2 55636  70.0002  46.7307 0002697 264.2871  95.7981 14.98329685 49341,6950.194,96.107,573.933,570.184,0.0
55636.0,STARLINK-5218,PAYLOAD,2024-01-06 04:56:38,14.98321958,0.0002468,70.0007,45.047,260.24,99.848,-9.5472e-05,-1.232e-05,0.0,0 STARLINK-5218,1 55636U 23021J   24006.20600419 -.00001232  00000-0 -95472-4 0  9998,2 55636  70.0007  45.0470 0002468 260.2400  99.8480 14.98321958 49141,6950.218,96.108,573.798,570.367,0.0
55636.0,STARLINK-5218,PAYLOAD,2024-01-06 11:21:11,14.98319961,0.0002385,70.001,44.3737,258.095,101.9942,-0.000102,-1.309e-05,0.0,0 STARLINK-5218,1 55636U 23021J   24006.47304695 -.00001309  00000-0 -10200-3 0  9994,2 55636  70.0010  44.3737 0002385 258.0950 101.9942 14.98319961 49482,6950.224,96.108,573.747,570.431,0.0
55636.0,STARLINK-5218,PAYLOAD,2024-01-07 03:22:31,14.98325278,0.000243,70.0015,42.691,265.5877,94.5004,6.7493e-05,7.12e-06,0.0,0 STARLINK-5218,1 55636U 23021J   24007.14064043  .00000712  00000-0  67493-4 0  9991,2 55636  70.0015  42.6910 0002430 265.5877  94.5004 14.98325278 49285,6950.207,96.107,573.761,570.384,0.0
55636.0,STARLINK-5218,PAYLOAD,2024-01-07 11:23:11,14.98326316,0.0002289,70.0012,41.8493,257.2827,102.8076,6.5344e-05,6.87e-06,0.0,0 STARLINK-5218,1 55636U 23021J   24007.47444066  .00000687  00000-0  65344-4 0  9998,2 55636  70.0012  41.8493 0002289 257.2827 102.8076 14.98326316 49639,6950.204,96.107,573.66,570.478,0.0
55636.0,STARLINK-5218,PAYLOAD,2024-01-08 03:24:31,14.98333107,0.0002845,69.9997,40.1641,269.1478,90.9355,0.00018326,2.094e-05,0.0,0 STARLINK-5218,1 55636U 23021J   24008.14203236  .00002094  00000-0  18326-3 0  9996,2 55636  69.9997  40.1641 0002845 269.1478  90.9355 14.98333107 49438,6950.183,96.107,574.026,570.071,0.0
55636.0,STARLINK-5218,PAYLOAD,2024-01-08 11:25:11,14.98335259,0.0002587,70.0003,39.3232,264.4626,95.6238,0.00019672,2.255e-05,0.0,0 STARLINK-5218,1 55636U 23021J   24008.47582984  .00002255  00000-0  19672-3 0  9996,2 55636  70.0003  39.3232 0002587 264.4626  95.6238 14.98335259 49781,6950.177,96.107,573.84,570.244,0.0
55636.0,STARLINK-5218,PAYLOAD,2024-01-09 05:02:40,14.98332988,0.0002615,70.0002,37.4717,263.7313,96.3549,8.0913e-06,4e-08,0.0,0 STARLINK-5218,1 55636U 23021J   24009.21019352  .00000004  00000-0  80913-5 0  9991,2 55636  70.0002  37.4717 0002615 263.7313  96.3549 14.98332988 49592,6950.184,96.107,573.866,570.231,0.0
55636.0,STARLINK-5218,PAYLOAD,2024-01-09 11:27:13,14.98332043,0.0002688,70.0006,36.7986,269.4233,90.6618,3.6588e-06,-4.9e-07,0.0,0 STARLINK-5218,1 55636U 23021J   24009.47723415 -.00000049  00000-0  36588-5 0  9990,2 55636  70.0006  36.7986 0002688 269.4233  90.6618 14.98332043 49934,6950.187,96.107,573.92,570.183,0.0
